[{"OBJECT_NAME":"STARLINK-36983","OBJECT_ID":"2026-059C","EPOCH":"2026-03-31T16:00:01.999584","MEAN_MOTION":15.80877302,"ECCENTRICITY":8.68e-5,"INCLINATION":53.1605,"RA_OF_ASC_NODE":252.7431,"ARG_OF_PERICENTER":69.1247,"MEAN_ANOMALY":143.7659,"EPHEMERIS_TYPE":0,"CLASSIFICATION_TYPE":"U","NORAD_CAT_ID":68323,"ELEMENT_SET_NO":999,"REV_AT_EPOCH":257,"BSTAR":-2.1081e-5,"MEAN_MOTION_DOT":-4.857e-5,"MEAN_MOTION_DDOT":0},{"OBJECT_NAME":"STARLINK-37164","OBJECT_ID":"2026-059D","EPOCH":"2026-03-31T16:00:01.999584","MEAN_MOTION":15.80881704,"ECCENTRICITY":0.0001078,"INCLINATION":53.1594,"RA_OF_ASC_NODE":252.7255,"ARG_OF_PERICENTER":31.267,"MEAN_ANOMALY":190.1792,"EPHEMERIS_TYPE":0,"CLASSIFICATION_TYPE":"U","NORAD_CAT_ID":68324,"ELEMENT_SET_NO":999,"REV_AT_EPOCH":257,"BSTAR":-7.8845e-5,"MEAN_MOTION_DOT":-0.00016237,"MEAN_MOTION_DDOT":0},{"OBJECT_NAME":"STARLINK-36309","OBJECT_ID":"2026-059E","EPOCH":"2026-03-31T16:00:01.999584","MEAN_MOTION":15.80856855,"ECCENTRICITY":5.48e-5,"INCLINATION":53.1595,"RA_OF_ASC_NODE":252.7165,"ARG_OF_PERICENTER":25.9035,"MEAN_ANOMALY":199.8113,"EPHEMERIS_TYPE":0,"CLASSIFICATION_TYPE":"U","NORAD_CAT_ID":68325,"ELEMENT_SET_NO":999,"REV_AT_EPOCH":257,"BSTAR":0.00018561,"MEAN_MOTION_DOT":0.0003606,"MEAN_MOTION_DDOT":0},{"OBJECT_NAME":"STARLINK-37206","OBJECT_ID":"2026-059F","EPOCH":"2026-03-31T16:00:01.999584","MEAN_MOTION":15.80874459,"ECCENTRICITY":0.0001824,"INCLINATION":53.1597,"RA_OF_ASC_NODE":252.7078,"ARG_OF_PERICENTER":25.1701,"MEAN_ANOMALY":204.8176,"EPHEMERIS_TYPE":0,"CLASSIFICATION_TYPE":"U","NORAD_CAT_ID":68326,"ELEMENT_SET_NO":999,"REV_AT_EPOCH":257,"BSTAR":-3.1363e-5,"MEAN_MOTION_DOT":-6.886e-5,"MEAN_MOTION_DDOT":0},{"OBJECT_NAME":"STARLINK-37199","OBJECT_ID":"2026-059G","EPOCH":"2026-03-31T16:00:01.999584","MEAN_MOTION":15.80807748,"ECCENTRICITY":0.0001052,"INCLINATION":53.1596,"RA_OF_ASC_NODE":252.6988,"ARG_OF_PERICENTER":96.8453,"MEAN_ANOMALY":137.4335,"EPHEMERIS_TYPE":0,"CLASSIFICATION_TYPE":"U","NORAD_CAT_ID":68327,"ELEMENT_SET_NO":999,"REV_AT_EPOCH":257,"BSTAR":0.00056553,"MEAN_MOTION_DOT":0.00112037,"MEAN_MOTION_DDOT":0},{"OBJECT_NAME":"STARLINK-36245","OBJECT_ID":"2026-059H","EPOCH":"2026-03-31T16:00:01.999584","MEAN_MOTION":15.808584,"ECCENTRICITY":0.0001467,"INCLINATION":53.1595,"RA_OF_ASC_NODE":252.6813,"ARG_OF_PERICENTER":85.1064,"MEAN_ANOMALY":157.7005,"EPHEMERIS_TYPE":0,"CLASSIFICATION_TYPE":"U","NORAD_CAT_ID":68328,"ELEMENT_SET_NO":999,"REV_AT_EPOCH":257,"BSTAR":0.00018213,"MEAN_MOTION_DOT":0.0003537,"MEAN_MOTION_DDOT":0},{"OBJECT_NAME":"STARLINK-37204","OBJECT_ID":"2026-059J","EPOCH":"2026-03-31T16:00:01.999584","MEAN_MOTION":15.80863839,"ECCENTRICITY":9.72e-5,"INCLINATION":53.1595,"RA_OF_ASC_NODE":252.6905,"ARG_OF_PERICENTER":78.9071,"MEAN_ANOMALY":159.6373,"EPHEMERIS_TYPE":0,"CLASSIFICATION_TYPE":"U","NORAD_CAT_ID":68329,"ELEMENT_SET_NO":999,"REV_AT_EPOCH":257,"BSTAR":-3.1674e-5,"MEAN_MOTION_DOT":-6.942e-5,"MEAN_MOTION_DDOT":0},{"OBJECT_NAME":"STARLINK-37001","OBJECT_ID":"2026-059K","EPOCH":"2026-03-31T16:00:01.999584","MEAN_MOTION":15.80850233,"ECCENTRICITY":0.0001492,"INCLINATION":53.1594,"RA_OF_ASC_NODE":252.6727,"ARG_OF_PERICENTER":95.5554,"MEAN_ANOMALY":151.5333,"EPHEMERIS_TYPE":0,"CLASSIFICATION_TYPE":"U","NORAD_CAT_ID":68330,"ELEMENT_SET_NO":999,"REV_AT_EPOCH":257,"BSTAR":0.00017212,"MEAN_MOTION_DOT":0.00033367,"MEAN_MOTION_DDOT":0},{"OBJECT_NAME":"STARLINK-36932","OBJECT_ID":"2026-059L","EPOCH":"2026-03-31T16:00:01.999584","MEAN_MOTION":15.80841553,"ECCENTRICITY":6.49e-5,"INCLINATION":53.1595,"RA_OF_ASC_NODE":252.6638,"ARG_OF_PERICENTER":34.9968,"MEAN_ANOMALY":216.3698,"EPHEMERIS_TYPE":0,"CLASSIFICATION_TYPE":"U","NORAD_CAT_ID":68331,"ELEMENT_SET_NO":999,"REV_AT_EPOCH":257,"BSTAR":0.00022923,"MEAN_MOTION_DOT":0.00044713,"MEAN_MOTION_DDOT":0},{"OBJECT_NAME":"STARLINK-37205","OBJECT_ID":"2026-059M","EPOCH":"2026-03-31T16:00:01.999584","MEAN_MOTION":15.80869969,"ECCENTRICITY":0.0001094,"INCLINATION":53.1594,"RA_OF_ASC_NODE":252.6552,"ARG_OF_PERICENTER":83.5801,"MEAN_ANOMALY":172.0491,"EPHEMERIS_TYPE":0,"CLASSIFICATION_TYPE":"U","NORAD_CAT_ID":68332,"ELEMENT_SET_NO":999,"REV_AT_EPOCH":257,"BSTAR":4.399e-5,"MEAN_MOTION_DOT":7.99e-5,"MEAN_MOTION_DDOT":0},{"OBJECT_NAME":"STARLINK-37180","OBJECT_ID":"2026-059N","EPOCH":"2026-03-31T16:00:01.999584","MEAN_MOTION":15.80754721,"ECCENTRICITY":7.97e-5,"INCLINATION":53.1596,"RA_OF_ASC_NODE":252.6461,"ARG_OF_PERICENTER":27.5459,"MEAN_ANOMALY":232.3653,"EPHEMERIS_TYPE":0,"CLASSIFICATION_TYPE":"U","NORAD_CAT_ID":68333,"ELEMENT_SET_NO":999,"REV_AT_EPOCH":257,"BSTAR":0.0010924,"MEAN_MOTION_DOT":0.00219272,"MEAN_MOTION_DDOT":0},{"OBJECT_NAME":"STARLINK-37191","OBJECT_ID":"2026-059P","EPOCH":"2026-03-31T16:00:01.999584","MEAN_MOTION":15.80878542,"ECCENTRICITY":0.0001122,"INCLINATION":53.1594,"RA_OF_ASC_NODE":252.6374,"ARG_OF_PERICENTER":66.1027,"MEAN_ANOMALY":198.0644,"EPHEMERIS_TYPE":0,"CLASSIFICATION_TYPE":"U","NORAD_CAT_ID":68334,"ELEMENT_SET_NO":999,"REV_AT_EPOCH":257,"BSTAR":-7.9843e-5,"MEAN_MOTION_DOT":-0.00016431,"MEAN_MOTION_DDOT":0},{"OBJECT_NAME":"STARLINK-37217","OBJECT_ID":"2026-059Q","EPOCH":"2026-03-31T16:00:01.999584","MEAN_MOTION":15.80971022,"ECCENTRICITY":8.53e-5,"INCLINATION":53.1596,"RA_OF_ASC_NODE":252.6285,"ARG_OF_PERICENTER":88.9874,"MEAN_ANOMALY":179.4052,"EPHEMERIS_TYPE":0,"CLASSIFICATION_TYPE":"U","NORAD_CAT_ID":68335,"ELEMENT_SET_NO":999,"REV_AT_EPOCH":257,"BSTAR":-0.00084319,"MEAN_MOTION_DOT":-0.00164722,"MEAN_MOTION_DDOT":0},{"OBJECT_NAME":"STARLINK-37143","OBJECT_ID":"2026-059R","EPOCH":"2026-03-31T16:00:01.999584","MEAN_MOTION":15.81230453,"ECCENTRICITY":7.86e-5,"INCLINATION":53.1595,"RA_OF_ASC_NODE":252.6202,"ARG_OF_PERICENTER":73.5208,"MEAN_ANOMALY":199.0079,"EPHEMERIS_TYPE":0,"CLASSIFICATION_TYPE":"U","NORAD_CAT_ID":68336,"ELEMENT_SET_NO":999,"REV_AT_EPOCH":257,"BSTAR":-0.0028225,"MEAN_MOTION_DOT":-0.00533465,"MEAN_MOTION_DDOT":0},{"OBJECT_NAME":"STARLINK-36237","OBJECT_ID":"2026-059S","EPOCH":"2026-03-31T16:00:01.999584","MEAN_MOTION":15.81486973,"ECCENTRICITY":0.0001,"INCLINATION":53.1593,"RA_OF_ASC_NODE":252.6114,"ARG_OF_PERICENTER":67.9776,"MEAN_ANOMALY":208.6764,"EPHEMERIS_TYPE":0,"CLASSIFICATION_TYPE":"U","NORAD_CAT_ID":68337,"ELEMENT_SET_NO":999,"REV_AT_EPOCH":257,"BSTAR":-0.0047087,"MEAN_MOTION_DOT":-0.00866364,"MEAN_MOTION_DDOT":0},{"OBJECT_NAME":"STARLINK-36254","OBJECT_ID":"2026-059T","EPOCH":"2026-03-31T16:00:01.999584","MEAN_MOTION":15.82182018,"ECCENTRICITY":0.0001069,"INCLINATION":53.1593,"RA_OF_ASC_NODE":252.5947,"ARG_OF_PERICENTER":85.6099,"MEAN_ANOMALY":199.0703,"EPHEMERIS_TYPE":0,"CLASSIFICATION_TYPE":"U","NORAD_CAT_ID":68338,"ELEMENT_SET_NO":999,"REV_AT_EPOCH":257,"BSTAR":-0.0085547,"MEAN_MOTION_DOT":-0.01573633,"MEAN_MOTION_DDOT":0},{"OBJECT_NAME":"STARLINK-37200","OBJECT_ID":"2026-059U","EPOCH":"2026-03-31T16:00:01.999584","MEAN_MOTION":15.81831531,"ECCENTRICITY":0.0001256,"INCLINATION":53.1592,"RA_OF_ASC_NODE":252.6033,"ARG_OF_PERICENTER":99.8036,"MEAN_ANOMALY":180.8964,"EPHEMERIS_TYPE":0,"CLASSIFICATION_TYPE":"U","NORAD_CAT_ID":68339,"ELEMENT_SET_NO":999,"REV_AT_EPOCH":257,"BSTAR":-0.0069663,"MEAN_MOTION_DOT":-0.01269689,"MEAN_MOTION_DDOT":0}]
